FLOCK 4G-36             
1 62675U 25009BU  26068.70726311  .00013573  00000+0  51122-3 0  9993
2 62675  97.4053 151.0513 0003474 324.2456  35.8550 15.27209548 63701
STARLINK-36129          
1 66874U 25281AC  26068.15523885  .00035237  00000+0  12841-2 0  9995
2 66874  43.0031 346.5022 0001675 285.5594  74.5073 15.27575623 16098
